JILIN-1 07              
1 43159U 18008E   26170.83136657  .00007377  00000+0  22092-3 0  9995
2 43159  97.1769 190.6894 0009696  57.5504 302.6676 15.34759761465403
JILIN-1 08              
1 43160U 18008F   26170.83334792  .00004891  00000+0  15213-3 0  9992
2 43160  97.1803 190.0052 0007927  72.9979 287.2132 15.33738432465356
S-NET D                 
1 43186U 18014G   26170.77101067  .00003833  00000+0  19898-3 0  9995
2 43186  97.5356  75.5454 0008688  22.2001 337.9606 15.16692471459156
S-NET B                 
1 43187U 18014H   26170.78251391  .00003755  00000+0  19518-3 0  9995
2 43187  97.5363  75.5433 0009173  17.0385 343.1155 15.16663327459155
S-NET A                 
1 43188U 18014J   26170.30805269  .00003906  00000+0  20267-3 0  9994
2 43188  97.5374  75.2812 0009104  19.2702 340.8874 15.16697493459082
S-NET C                 
1 43189U 18014K   26170.78640308  .00003783  00000+0  19661-3 0  9997
2 43189  97.5391  75.8316 0010184   9.2884 350.8535 15.16655510457703
PAZ                     
1 43215U 18020A   26170.80760712  .00001376  00000+0  68723-4 0  9999
2 43215  97.4453 178.1561 0001717  87.5875 272.5556 15.19144791461403
GOES 17                 
1 43226U 18022A   26170.80398575 -.00000188  00000+0  00000+0 0  9997
2 43226   0.9448  85.6637 0000553  26.9886 355.2755  1.00269497 30453
LKW-4                   
1 43236U 18025A   26170.44911574  .00039199  00000+0  44209-3 0  9997
2 43236  97.6350 341.4996 0001969 279.1806  80.9229 15.62427153460381
ZHUHAI-1 OVS-02         
1 43440U 18040B   26170.85609391  .00005995  00000+0  24250-3 0  9998
2 43440  97.0387 187.9275 0001990 218.2586 141.8512 15.25054206453128
ZHUHAI-1 OHS-02         
1 43441U 18040C   26170.83968522  .00006160  00000+0  24259-3 0  9995
2 43441  97.0370 194.8543 0008370 209.3664 150.7105 15.25912653114684
GAOFEN-6                
1 43484U 18048A   26170.84948226 -.00000213  00000+0 -23140-4 0  9994
2 43484  97.9705 233.5627 0011821 157.2646 202.9090 14.76598730433781
LUOJIA-1 01             
1 43485U 18048B   26170.86535025  .00001034  00000+0  12059-3 0  9992
2 43485  97.8101 249.0102 0010351 109.2873 250.9464 14.87292649434610
PAKTES 1A               
1 43529U 18056A   26170.87483487  .00001273  00000+0  10969-3 0  9998
2 43529  98.1305 327.4768 0021938  97.6997 262.6717 14.99113048432323
PRSS-1                  
1 43530U 18056B   26170.82307052  .00001006  00000+0  13332-3 0  9999
2 43530  97.7816 238.6201 0001597  77.0350 283.1041 14.81993329428823
HAIYANG-1C              
1 43609U 18068A   26170.82638351 -.00000059  00000+0 -55544-5 0  9990
2 43609  98.5187 243.0966 0012121  87.3650 272.8922 14.34179170407468
SSTL S1-4               
1 43618U 18071A   26170.89719524  .00000130  00000+0  16352-4 0  9994
2 43618  97.5018  42.3987 0001254 109.8167 250.3190 14.96180539423343
HAIYANG-2B              
1 43655U 18081A   26170.84693968 -.00000026  00000+0  17788-4 0  9993
2 43655  99.3283 179.5633 0000265   4.3037 355.8117 13.79307140385295
CFOSAT                  
1 43662U 18083A   26170.86532247  .00002495  00000+0  13183-3 0  9992
2 43662  97.3605 175.3171 0002403  89.2108 270.9401 15.16388274422843
TEN-KOH                 
1 43677U 18084G   26170.52046956  .00001365  00000+0  10646-3 0  9995
2 43677  98.0771   2.9828 0011514 107.4797 252.7687 15.02949767416511
DIWATA-2B               
1 43678U 18084H   26170.83737839  .00002089  00000+0  17098-3 0  9999
2 43678  98.1185   7.1604 0012724 161.6298 198.5387 15.00462775416615
STARS-AO                
1 43679U 18084J   26170.57998705  .00004324  00000+0  22217-3 0  9995
2 43679  98.0497  24.6984 0003033 131.9417 228.2074 15.17074017417837
AUTCUBE 2               
1 43681U 18084K   26170.28451047  .00002446  00000+0  15440-3 0  9992
2 43681  98.0708  16.5700 0009901  43.1941 317.0062 15.10102080417241
METOP-C                 
1 43689U 18087A   26170.81315514  .00000068  00000+0  50875-4 0  9990
2 43689  98.6644 230.3688 0001855 126.0748 234.0601 14.21512743395201
ES'HAIL 2               
1 43700U 18090A   26170.75551398  .00000138  00000+0  00000+0 0  9991
2 43700   0.0135  53.5670 0001779  70.9931  81.1783  1.00272144 27709
MOHAMMED VI-B           
1 43717U 18095A   26170.81875001  .00000276  00000+0  46221-4 0  9994
2 43717  97.9553 243.1084 0001353  99.2833 260.8530 14.77119293408572
HYSIS                   
1 43719U 18096A   26170.85064206 -.00000183  00000+0 -17882-4 0  9998
2 43719  97.9834 237.5779 0001775  96.0029 264.1384 14.78618256407818
COSMOS 2530 (RODNIK-S *)
1 43751U 18097A   26170.87215434  .00000140  00000+0  94019-3 0  9995
2 43751  82.5131 220.6146 0020067  34.0310 326.2053 12.42881778342625
COSMOS 2531 (RODNIK-S *)
1 43752U 18097B   26170.81386913 -.00000520  00000+0 -38232-2 0  9999
2 43752  82.5176 221.7101 0017605  53.0069 307.2618 12.42912398342634
COSMOS 2532 (RODNIK-S *)
1 43753U 18097C   26170.84215023 -.00000034  00000+0 -31647-3 0  9990
2 43753  82.5120 220.4773 0019027  54.7326 305.5530 12.42909831342608
