OBJECT_NAME,OBJECT_ID,EPOCH,MEAN_MOTION,ECCENTRICITY,INCLINATION,RA_OF_ASC_NODE,ARG_OF_PERICENTER,MEAN_ANOMALY,EPHEMERIS_TYPE,CLASSIFICATION_TYPE,NORAD_CAT_ID,ELEMENT_SET_NO,REV_AT_EPOCH,BSTAR,MEAN_MOTION_DOT,MEAN_MOTION_DDOT
JILIN-1 07,2018-008E,2026-06-19T19:57:10.071648,15.34759761,.0009696,97.1769,190.6894,57.5504,302.6676,0,U,43159,999,46540,.22092E-3,.7377E-4,0
JILIN-1 08,2018-008F,2026-06-19T20:00:01.260288,15.33738432,.0007927,97.1803,190.0052,72.9979,287.2132,0,U,43160,999,46535,.15213E-3,.4891E-4,0
S-NET D,2018-014G,2026-06-19T18:30:15.321888,15.16692471,.0008688,97.5356,75.5454,22.2001,337.9606,0,U,43186,999,45915,.19898E-3,.3833E-4,0
S-NET B,2018-014H,2026-06-19T18:46:49.201824,15.16663327,.0009173,97.5363,75.5433,17.0385,343.1155,0,U,43187,999,45915,.19518E-3,.3755E-4,0
S-NET A,2018-014J,2026-06-19T07:23:35.752416,15.16697493,.0009104,97.5374,75.2812,19.2702,340.8874,0,U,43188,999,45908,.20267414E-3,.3906E-4,0
S-NET C,2018-014K,2026-06-19T18:52:25.226112,15.16655510,.0010184,97.5391,75.8316,9.2884,350.8535,0,U,43189,999,45770,.19661E-3,.3783E-4,0
PAZ,2018-020A,2026-06-19T19:22:57.255168,15.19144791,.0001717,97.4453,178.1561,87.5875,272.5556,0,U,43215,999,46140,.68723E-4,.1376E-4,0
GOES 17,2018-022A,2026-06-19T19:17:44.368800,1.00269497,.0000553,0.9448,85.6637,26.9886,355.2755,0,U,43226,999,3045,0,-.188E-5,0
LKW-4,2018-025A,2026-06-19T10:46:43.599936,15.62427153,.00019694,97.6350,341.4996,279.1806,80.9229,0,U,43236,999,46038,.44208914E-3,.39199E-3,0
ZHUHAI-1 OVS-02,2018-040B,2026-06-19T20:32:46.513824,15.25054206,.000199,97.0387,187.9275,218.2586,141.8512,0,U,43440,999,45312,.2425E-3,.5995E-4,0
ZHUHAI-1 OHS-02,2018-040C,2026-06-19T20:09:08.803008,15.25912653,.000837,97.0370,194.8543,209.3664,150.7105,0,U,43441,999,11468,.24259E-3,.616E-4,0
GAOFEN-6,2018-048A,2026-06-19T20:23:15.267264,14.76598730,.0011821,97.9705,233.5627,157.2646,202.9090,0,U,43484,999,43378,-.2314E-4,-.213E-5,0
LUOJIA-1 01,2018-048B,2026-06-19T20:46:06.261600,14.87292649,.0010351,97.8101,249.0102,109.2873,250.9464,0,U,43485,999,43461,.12059E-3,.1034E-4,0
PAKTES 1A,2018-056A,2026-06-19T20:59:45.732768,14.99113048,.0021938,98.1305,327.4768,97.6997,262.6717,0,U,43529,999,43232,.10969E-3,.1273E-4,0
PRSS-1,2018-056B,2026-06-19T19:45:13.292928,14.81993329,.0001597,97.7816,238.6201,77.0350,283.1041,0,U,43530,999,42882,.13332E-3,.1006E-4,0
HAIYANG-1C,2018-068A,2026-06-19T19:49:59.535264,14.34179170,.0012121,98.5187,243.0966,87.3650,272.8922,0,U,43609,999,40746,-.55544E-5,-.59E-6,0
SSTL S1-4,2018-071A,2026-06-19T21:31:57.668736,14.96180539,.0001254,97.5018,42.3987,109.8167,250.3190,0,U,43618,999,42334,.16352E-4,.13E-5,0
HAIYANG-2B,2018-081A,2026-06-19T20:19:35.588352,13.79307140,.0000265,99.3283,179.5633,4.3037,355.8117,0,U,43655,999,38529,.17788E-4,-.26E-6,0
CFOSAT,2018-083A,2026-06-19T20:46:03.861408,15.16388274,.0002403,97.3605,175.3171,89.2108,270.9401,0,U,43662,999,42284,.13183E-3,.2495E-4,0
TEN-KOH,2018-084G,2026-06-19T12:29:28.569984,15.02949767,.00115148,98.0771,2.9828,107.4797,252.7687,0,U,43677,999,41651,.10646057E-3,.1365E-4,0
DIWATA-2B,2018-084H,2026-06-19T20:05:49.492896,15.00462775,.0012724,98.1185,7.1604,161.6298,198.5387,0,U,43678,999,41661,.17098E-3,.2089E-4,0
STARS-AO,2018-084J,2026-06-19T13:55:10.881120,15.17074017,.00030339,98.0497,24.6984,131.9417,228.2074,0,U,43679,999,41783,.22217157E-3,.4324E-4,0
AUTCUBE 2,2018-084K,2026-06-19T06:49:41.704608,15.10102080,.00099013,98.0708,16.5700,43.1941,317.0062,0,U,43681,999,41724,.15440469E-3,.2446E-4,0
METOP-C,2018-087A,2026-06-19T19:30:56.604096,14.21512743,.0001855,98.6644,230.3688,126.0748,234.0601,0,U,43689,999,39520,.50875E-4,.68E-6,0
ES'HAIL 2,2018-090A,2026-06-19T18:07:56.407872,1.00272144,.0001779,0.0135,53.5670,70.9931,81.1783,0,U,43700,999,2770,0,.138E-5,0
MOHAMMED VI-B,2018-095A,2026-06-19T19:39:00.000864,14.77119293,.0001353,97.9553,243.1084,99.2833,260.8530,0,U,43717,999,40857,.46221E-4,.276E-5,0
HYSIS,2018-096A,2026-06-19T20:24:55.473984,14.78618256,.0001775,97.9834,237.5779,96.0029,264.1384,0,U,43719,999,40781,-.17882E-4,-.183E-5,0
COSMOS 2530 (RODNIK-S 16),2018-097A,2026-06-19T20:55:54.134976,12.42881778,.0020067,82.5131,220.6146,34.0310,326.2053,0,U,43751,999,34262,.94019E-3,.14E-5,0
COSMOS 2531 (RODNIK-S 17),2018-097B,2026-06-19T19:31:58.292832,12.42912398,.0017605,82.5176,221.7101,53.0069,307.2618,0,U,43752,999,34263,-.38232E-2,-.52E-5,0
COSMOS 2532 (RODNIK-S 18),2018-097C,2026-06-19T20:12:41.779872,12.42909831,.0019027,82.5120,220.4773,54.7326,305.5530,0,U,43753,999,34260,-.31647E-3,-.34E-6,0
